[
    {
        "Altitude(m)": 559277.6754339369,
        "Argument of Periapsis(deg)": 0.013245982221427002,
        "Eccentricity": 0.0,
        "Inclination(deg)": 53.0,
        "Latitude(deg)": 50.41463329316818,
        "Longitude(deg)": -66.58651815642132,
        "Mean Anomaly(deg)": -254.36221426484485,
        "RAAN(deg)": 279.9802867370561,
        "Satellite Name": "Starlink Shell 1 1237",
        "Satellite Number": 1237,
        "Semi-Major Axis(m)": 6931778.249405717,
        "Time(s)": 380
    },
    {
        "Altitude(m)": 559228.4380313337,
        "Argument of Periapsis(deg)": 0.013594560700938237,
        "Eccentricity": 0.0,
        "Inclination(deg)": 53.0,
        "Latitude(deg)": 50.199349889917876,
        "Longitude(deg)": -65.70836840313733,
        "Mean Anomaly(deg)": -253.73538306128808,
        "RAAN(deg)": 279.97976796697856,
        "Satellite Name": "Starlink Shell 1 1237",
        "Satellite Number": 1237,
        "Semi-Major Axis(m)": 6931778.249405717,
        "Time(s)": 390
    },
    {
        "Altitude(m)": 559177.5380271723,
        "Argument of Periapsis(deg)": 0.013943139180449475,
        "Eccentricity": 0.0,
        "Inclination(deg)": 53.0,
        "Latitude(deg)": 49.97685080819359,
        "Longitude(deg)": -64.83858188957568,
        "Mean Anomaly(deg)": -253.1085518577314,
        "RAAN(deg)": 279.97924919690104,
        "Satellite Name": "Starlink Shell 1 1237",
        "Satellite Number": 1237,
        "Semi-Major Axis(m)": 6931778.249405717,
        "Time(s)": 400
    },
    {
        "Altitude(m)": 559125.0064029596,
        "Argument of Periapsis(deg)": 0.014291717659960712,
        "Eccentricity": 0.0,
        "Inclination(deg)": 53.0,
        "Latitude(deg)": 49.747257495758255,
        "Longitude(deg)": -63.977284620940026,
        "Mean Anomaly(deg)": -252.48172065417467,
        "RAAN(deg)": 279.97873042682363,
        "Satellite Name": "Starlink Shell 1 1237",
        "Satellite Number": 1237,
        "Semi-Major Axis(m)": 6931778.249405717,
        "Time(s)": 410
    },
    {
        "Altitude(m)": 559070.8751670263,
        "Argument of Periapsis(deg)": 0.014640296139471948,
        "Eccentricity": 0.0,
        "Inclination(deg)": 53.0,
        "Latitude(deg)": 49.510692504980454,
        "Longitude(deg)": -63.12458792179106,
        "Mean Anomaly(deg)": -251.85488945061795,
        "RAAN(deg)": 279.97821165674617,
        "Satellite Name": "Starlink Shell 1 1237",
        "Satellite Number": 1237,
        "Semi-Major Axis(m)": 6931778.249405717,
        "Time(s)": 420
    },
    {
        "Altitude(m)": 559015.1773388133,
        "Argument of Periapsis(deg)": 0.014988874618983185,
        "Eccentricity": 0.0,
        "Inclination(deg)": 53.0,
        "Latitude(deg)": 49.267279252320854,
        "Longitude(deg)": -62.2805883214215,
        "Mean Anomaly(deg)": -251.22805824706123,
        "RAAN(deg)": 279.97769288666865,
        "Satellite Name": "Starlink Shell 1 1237",
        "Satellite Number": 1237,
        "Semi-Major Axis(m)": 6931778.249405717,
        "Time(s)": 430
    },
    {
        "Altitude(m)": 558957.9469326052,
        "Argument of Periapsis(deg)": 0.015337453098494424,
        "Eccentricity": 0.0,
        "Inclination(deg)": 53.0,
        "Latitude(deg)": 49.01714178758375,
        "Longitude(deg)": -61.44536747669233,
        "Mean Anomaly(deg)": -250.60122704350457,
        "RAAN(deg)": 279.9771741165912,
        "Satellite Name": "Starlink Shell 1 1237",
        "Satellite Number": 1237,
        "Semi-Major Axis(m)": 6931778.249405717,
        "Time(s)": 440
    },
    {
        "Altitude(m)": 558899.2189407914,
        "Argument of Periapsis(deg)": 0.01568603157800566,
        "Eccentricity": 0.0,
        "Inclination(deg)": 53.0,
        "Latitude(deg)": 48.76040457343069,
        "Longitude(deg)": -60.618993640094985,
        "Mean Anomaly(deg)": -249.97439583994785,
        "RAAN(deg)": 279.9766553465137,
        "Satellite Name": "Starlink Shell 1 1237",
        "Satellite Number": 1237,
        "Semi-Major Axis(m)": 6931778.249405717,
        "Time(s)": 450
    },
    {
        "Altitude(m)": 558839.0293166221,
        "Argument of Periapsis(deg)": 0.0160346100575169,
        "Eccentricity": 0.0,
        "Inclination(deg)": 53.0,
        "Latitude(deg)": 48.49719227554924,
        "Longitude(deg)": -59.80152164233333,
        "Mean Anomaly(deg)": -249.34756463639107,
        "RAAN(deg)": 279.97613657643626,
        "Satellite Name": "Starlink Shell 1 1237",
        "Satellite Number": 1237,
        "Semi-Major Axis(m)": 6931778.249405717,
        "Time(s)": 460
    },
    {
        "Altitude(m)": 558777.4149564803,
        "Argument of Periapsis(deg)": 0.016383188537028134,
        "Eccentricity": 0.0,
        "Inclination(deg)": 53.0,
        "Latitude(deg)": 48.22762956376376,
        "Longitude(deg)": -58.99299289750962,
        "Mean Anomaly(deg)": -248.72073343283438,
        "RAAN(deg)": 279.9756178063588,
        "Satellite Name": "Starlink Shell 1 1237",
        "Satellite Number": 1237,
        "Semi-Major Axis(m)": 6931778.249405717,
        "Time(s)": 470
    },
    {
        "Altitude(m)": 558714.4136816593,
        "Argument of Periapsis(deg)": 0.01673176701653937,
        "Eccentricity": 0.0,
        "Inclination(deg)": 53.0,
        "Latitude(deg)": 47.95184092428099,
        "Longitude(deg)": -58.19343693921621,
        "Mean Anomaly(deg)": -248.0939022292776,
        "RAAN(deg)": 279.9750990362813,
        "Satellite Name": "Starlink Shell 1 1237",
        "Satellite Number": 1237,
        "Semi-Major Axis(m)": 6931778.249405717,
        "Time(s)": 480
    },
    {
        "Altitude(m)": 558650.0642197061,
        "Argument of Periapsis(deg)": 0.017080345496050607,
        "Eccentricity": 0.0,
        "Inclination(deg)": 53.0,
        "Latitude(deg)": 47.66995048317487,
        "Longitude(deg)": -57.40287145746213,
        "Mean Anomaly(deg)": -247.46707102572094,
        "RAAN(deg)": 279.9745802662038,
        "Satellite Name": "Starlink Shell 1 1237",
        "Satellite Number": 1237,
        "Semi-Major Axis(m)": 6931778.249405717,
        "Time(s)": 490
    },
    {
        "Altitude(m)": 558584.4061852583,
        "Argument of Periapsis(deg)": 0.017428923975561842,
        "Eccentricity": 0.0,
        "Inclination(deg)": 53.0,
        "Latitude(deg)": 47.382081841132425,
        "Longitude(deg)": -56.621302345244516,
        "Mean Anomaly(deg)": -246.84023982216425,
        "RAAN(deg)": 279.9740614961264,
        "Satellite Name": "Starlink Shell 1 1237",
        "Satellite Number": 1237,
        "Semi-Major Axis(m)": 6931778.249405717,
        "Time(s)": 500
    },
    {
        "Altitude(m)": 558517.4800604527,
        "Argument of Periapsis(deg)": 0.01777750245507308,
        "Eccentricity": 0.0,
        "Inclination(deg)": 53.0,
        "Latitude(deg)": 47.088357919406604,
        "Longitude(deg)": -55.84872526385293,
        "Mean Anomaly(deg)": -246.2134086186075,
        "RAAN(deg)": 279.9735427260489,
        "Satellite Name": "Starlink Shell 1 1237",
        "Satellite Number": 1237,
        "Semi-Major Axis(m)": 6931778.249405717,
        "Time(s)": 510
    },
    {
        "Altitude(m)": 558449.3271748677,
        "Argument of Periapsis(deg)": 0.018126080934584315,
        "Eccentricity": 0.0,
        "Inclination(deg)": 53.0,
        "Latitude(deg)": 46.788900816858636,
        "Longitude(deg)": -55.0851256976725,
        "Mean Anomaly(deg)": -245.58657741505078,
        "RAAN(deg)": 279.97302395597137,
        "Satellite Name": "Starlink Shell 1 1237",
        "Satellite Number": 1237,
        "Semi-Major Axis(m)": 6931778.249405717,
        "Time(s)": 520
    },
    {
        "Altitude(m)": 558379.9896850648,
        "Argument of Periapsis(deg)": 0.018474659414095554,
        "Eccentricity": 0.0,
        "Inclination(deg)": 53.0,
        "Latitude(deg)": 46.483831677910274,
        "Longitude(deg)": -54.330479008163984,
        "Mean Anomaly(deg)": -244.95974621149406,
        "RAAN(deg)": 279.97250518589397,
        "Satellite Name": "Starlink Shell 1 1237",
        "Satellite Number": 1237,
        "Semi-Major Axis(m)": 6931778.249405717,
        "Time(s)": 530
    },
    {
        "Altitude(m)": 558309.5105536393,
        "Argument of Periapsis(deg)": 0.018823237893606792,
        "Eccentricity": 0.0,
        "Inclination(deg)": 53.0,
        "Latitude(deg)": 46.17327057117188,
        "Longitude(deg)": -53.58475199699043,
        "Mean Anomaly(deg)": -244.3329150079374,
        "RAAN(deg)": 279.9719864158165,
        "Satellite Name": "Starlink Shell 1 1237",
        "Satellite Number": 1237,
        "Semi-Major Axis(m)": 6931778.249405717,
        "Time(s)": 540
    },
    {
        "Altitude(m)": 558237.9335279153,
        "Argument of Periapsis(deg)": 0.019171816373118027,
        "Eccentricity": 0.0,
        "Inclination(deg)": 53.0,
        "Latitude(deg)": 45.85733637847379,
        "Longitude(deg)": -52.847902949948775,
        "Mean Anomaly(deg)": -243.70608380438068,
        "RAAN(deg)": 279.971467645739,
        "Satellite Name": "Starlink Shell 1 1237",
        "Satellite Number": 1237,
        "Semi-Major Axis(m)": 6931778.249405717,
        "Time(s)": 550
    },
    {
        "Altitude(m)": 558165.303118188,
        "Argument of Periapsis(deg)": 0.019520394852629266,
        "Eccentricity": 0.0,
        "Inclination(deg)": 53.0,
        "Latitude(deg)": 45.53614669398388,
        "Longitude(deg)": -52.11988167226155,
        "Mean Anomaly(deg)": -243.0792526008239,
        "RAAN(deg)": 279.9709488756615,
        "Satellite Name": "Starlink Shell 1 1237",
        "Satellite Number": 1237,
        "Semi-Major Axis(m)": 6931778.249405717,
        "Time(s)": 560
    }
]